{
  "norad_id": 65030,
  "name": "STARLINK-34614",
  "history": [
    {
      "epoch": "2026-03-28T17:58:41.574720",
      "apogee_km": 475.9193882917798,
      "perigee_km": 474.4773094676675,
      "latitude_deg": -17.64635798883909,
      "longitude_deg": 34.91286079981364,
      "semi_major_axis_km": 6853.335348879723,
      "eccentricity": 0.00010521,
      "inclination_deg": 53.1573,
      "raan_deg": 205.9774,
      "arg_perigee_deg": 74.8888,
      "mean_anomaly_deg": 285.2229,
      "mean_motion_rev_day": 15.302056
    }
  ]
}