{"fetched_at":"2026-03-30T09:12:31Z","count":15922,"tles":[{"name":"STARLINK-34614","line1":"1 65030U 25161R   26087.74909230  .00036148  00000+0  12265-2 0  9995","line2":"2 65030  53.1573 205.9774 0001052  74.8888 285.2229 15.30205600 38244","category":"Starlink"}]}